[{"OBJECT_NAME":"ONEWEB-0349","OBJECT_ID":"2021-090C","EPOCH":"2026-06-16T07:39:12.959136","MEAN_MOTION":13.20772821,"ECCENTRICITY":0.0002016,"INCLINATION":87.9194,"RA_OF_ASC_NODE":274.6141,"ARG_OF_PERICENTER":101.4678,"MEAN_ANOMALY":258.6682,"EPHEMERIS_TYPE":0,"CLASSIFICATION_TYPE":"U","NORAD_CAT_ID":49281,"ELEMENT_SET_NO":999,"REV_AT_EPOCH":22971,"BSTAR":0.00025014,"MEAN_MOTION_DOT":1.15e-06,"MEAN_MOTION_DDOT":0.0},{"OBJECT_NAME":"ONEWEB-0353","OBJECT_ID":"2021-090D","EPOCH":"2026-06-16T07:08:06.229248","MEAN_MOTION":13.14503585,"ECCENTRICITY":0.0001657,"INCLINATION":87.8964,"RA_OF_ASC_NODE":289.8818,"ARG_OF_PERICENTER":100.1236,"MEAN_ANOMALY":260.0081,"EPHEMERIS_TYPE":0,"CLASSIFICATION_TYPE":"U","NORAD_CAT_ID":49282,"ELEMENT_SET_NO":999,"REV_AT_EPOCH":22746,"BSTAR":-0.00038607,"MEAN_MOTION_DOT":-1.3e-06,"MEAN_MOTION_DDOT":0.0},{"OBJECT_NAME":"ONEWEB-0356","OBJECT_ID":"2021-090E","EPOCH":"2026-06-16T07:36:46.861056","MEAN_MOTION":13.20773413,"ECCENTRICITY":0.0002077,"INCLINATION":87.9194,"RA_OF_ASC_NODE":274.6077,"ARG_OF_PERICENTER":77.6866,"MEAN_ANOMALY":282.4499,"EPHEMERIS_TYPE":0,"CLASSIFICATION_TYPE":"U","NORAD_CAT_ID":49283,"ELEMENT_SET_NO":999,"REV_AT_EPOCH":22971,"BSTAR":0.00021713,"MEAN_MOTION_DOT":1.01e-06,"MEAN_MOTION_DDOT":0.0},{"OBJECT_NAME":"ONEWEB-0358","OBJECT_ID":"2021-090F","EPOCH":"2026-06-16T06:34:33.987072","MEAN_MOTION":13.20237089,"ECCENTRICITY":0.000211,"INCLINATION":87.9197,"RA_OF_ASC_NODE":274.6218,"ARG_OF_PERICENTER":95.7312,"MEAN_ANOMALY":264.4061,"EPHEMERIS_TYPE":0,"CLASSIFICATION_TYPE":"U","NORAD_CAT_ID":49284,"ELEMENT_SET_NO":999,"REV_AT_EPOCH":23043,"BSTAR":1.0082000000000001e-05,"MEAN_MOTION_DOT":1.7e-07,"MEAN_MOTION_DDOT":0.0},{"OBJECT_NAME":"ONEWEB-0359","OBJECT_ID":"2021-090G","EPOCH":"2026-06-16T06:26:28.714560","MEAN_MOTION":13.20773448,"ECCENTRICITY":0.0002275,"INCLINATION":87.9194,"RA_OF_ASC_NODE":274.6175,"ARG_OF_PERICENTER":99.7159,"MEAN_ANOMALY":260.4231,"EPHEMERIS_TYPE":0,"CLASSIFICATION_TYPE":"U","NORAD_CAT_ID":49285,"ELEMENT_SET_NO":999,"REV_AT_EPOCH":23041,"BSTAR":0.00022084,"MEAN_MOTION_DOT":1.03e-06,"MEAN_MOTION_DDOT":0.0},{"OBJECT_NAME":"ONEWEB-0360","OBJECT_ID":"2021-090H","EPOCH":"2026-06-16T00:44:39.052320","MEAN_MOTION":13.20778618,"ECCENTRICITY":0.0002141,"INCLINATION":87.9194,"RA_OF_ASC_NODE":274.671,"ARG_OF_PERICENTER":103.0586,"MEAN_ANOMALY":257.0786,"EPHEMERIS_TYPE":0,"CLASSIFICATION_TYPE":"U","NORAD_CAT_ID":49286,"ELEMENT_SET_NO":999,"REV_AT_EPOCH":22969,"BSTAR":-0.0031926,"MEAN_MOTION_DOT":-1.285e-05,"MEAN_MOTION_DDOT":0.0},{"OBJECT_NAME":"ONEWEB-0361","OBJECT_ID":"2021-090J","EPOCH":"2026-06-16T07:34:21.440352","MEAN_MOTION":13.20771454,"ECCENTRICITY":0.0002089,"INCLINATION":87.9195,"RA_OF_ASC_NODE":274.6126,"ARG_OF_PERICENTER":98.3006,"MEAN_ANOMALY":261.8364,"EPHEMERIS_TYPE":0,"CLASSIFICATION_TYPE":"U","NORAD_CAT_ID":49287,"ELEMENT_SET_NO":999,"REV_AT_EPOCH":23018,"BSTAR":0.00025808,"MEAN_MOTION_DOT":1.18e-06,"MEAN_MOTION_DDOT":0.0},{"OBJECT_NAME":"ONEWEB-0362","OBJECT_ID":"2021-090K","EPOCH":"2026-06-16T02:46:44.312160","MEAN_MOTION":13.19724115,"ECCENTRICITY":0.0001913,"INCLINATION":87.9168,"RA_OF_ASC_NODE":305.1913,"ARG_OF_PERICENTER":107.2534,"MEAN_ANOMALY":252.8808,"EPHEMERIS_TYPE":0,"CLASSIFICATION_TYPE":"U","NORAD_CAT_ID":49288,"ELEMENT_SET_NO":999,"REV_AT_EPOCH":22677,"BSTAR":1.4782000000000002e-05,"MEAN_MOTION_DOT":1.9e-07,"MEAN_MOTION_DDOT":0.0},{"OBJECT_NAME":"ONEWEB-0363","OBJECT_ID":"2021-090L","EPOCH":"2026-06-16T06:07:04.896192","MEAN_MOTION":13.20770893,"ECCENTRICITY":0.0002066,"INCLINATION":87.9193,"RA_OF_ASC_NODE":274.625,"ARG_OF_PERICENTER":91.4644,"MEAN_ANOMALY":268.6726,"EPHEMERIS_TYPE":0,"CLASSIFICATION_TYPE":"U","NORAD_CAT_ID":49289,"ELEMENT_SET_NO":999,"REV_AT_EPOCH":23018,"BSTAR":0.00031141999999999997,"MEAN_MOTION_DOT":1.4e-06,"MEAN_MOTION_DDOT":0.0},{"OBJECT_NAME":"ONEWEB-0364","OBJECT_ID":"2021-090M","EPOCH":"2026-06-16T07:02:50.623872","MEAN_MOTION":13.20771894,"ECCENTRICITY":0.0001999,"INCLINATION":87.9192,"RA_OF_ASC_NODE":274.6251,"ARG_OF_PERICENTER":101.0045,"MEAN_ANOMALY":259.1313,"EPHEMERIS_TYPE":0,"CLASSIFICATION_TYPE":"U","NORAD_CAT_ID":49290,"ELEMENT_SET_NO":999,"REV_AT_EPOCH":23132,"BSTAR":7.440200000000001e-05,"MEAN_MOTION_DOT":4.3e-07,"MEAN_MOTION_DDOT":0.0},{"OBJECT_NAME":"ONEWEB-0365","OBJECT_ID":"2021-090N","EPOCH":"2026-06-15T21:32:51.738720","MEAN_MOTION":13.19724406,"ECCENTRICITY":0.0001807,"INCLINATION":87.9175,"RA_OF_ASC_NODE":305.2232,"ARG_OF_PERICENTER":100.9398,"MEAN_ANOMALY":259.1939,"EPHEMERIS_TYPE":0,"CLASSIFICATION_TYPE":"U","NORAD_CAT_ID":49291,"ELEMENT_SET_NO":999,"REV_AT_EPOCH":22625,"BSTAR":-0.00020842,"MEAN_MOTION_DOT":-7e-07,"MEAN_MOTION_DDOT":0.0},{"OBJECT_NAME":"ONEWEB-0366","OBJECT_ID":"2021-090P","EPOCH":"2026-06-16T07:03:32.058720","MEAN_MOTION":13.14503136,"ECCENTRICITY":0.0001958,"INCLINATION":87.8962,"RA_OF_ASC_NODE":289.8845,"ARG_OF_PERICENTER":100.4611,"MEAN_ANOMALY":259.674,"EPHEMERIS_TYPE":0,"CLASSIFICATION_TYPE":"U","NORAD_CAT_ID":49292,"ELEMENT_SET_NO":999,"REV_AT_EPOCH":22744,"BSTAR":-0.00044361,"MEAN_MOTION_DOT":-1.52e-06,"MEAN_MOTION_DDOT":0.0},{"OBJECT_NAME":"ONEWEB-0367","OBJECT_ID":"2021-090Q","EPOCH":"2026-06-16T06:05:53.337120","MEAN_MOTION":13.2077147,"ECCENTRICITY":0.0001916,"INCLINATION":87.9196,"RA_OF_ASC_NODE":274.6263,"ARG_OF_PERICENTER":105.5211,"MEAN_ANOMALY":254.6134,"EPHEMERIS_TYPE":0,"CLASSIFICATION_TYPE":"U","NORAD_CAT_ID":49293,"ELEMENT_SET_NO":999,"REV_AT_EPOCH":22970,"BSTAR":0.00036806,"MEAN_MOTION_DOT":1.63e-06,"MEAN_MOTION_DDOT":0.0},{"OBJECT_NAME":"ONEWEB-0368","OBJECT_ID":"2021-090R","EPOCH":"2026-06-16T07:17:22.792128","MEAN_MOTION":13.20770206,"ECCENTRICITY":0.0001421,"INCLINATION":87.9183,"RA_OF_ASC_NODE":274.6268,"ARG_OF_PERICENTER":83.6729,"MEAN_ANOMALY":276.4566,"EPHEMERIS_TYPE":0,"CLASSIFICATION_TYPE":"U","NORAD_CAT_ID":49294,"ELEMENT_SET_NO":999,"REV_AT_EPOCH":23086,"BSTAR":0.00013399,"MEAN_MOTION_DOT":6.7e-07,"MEAN_MOTION_DDOT":0.0},{"OBJECT_NAME":"ONEWEB-0369","OBJECT_ID":"2021-090S","EPOCH":"2026-06-16T02:53:34.339776","MEAN_MOTION":13.19724529,"ECCENTRICITY":0.0001798,"INCLINATION":87.9168,"RA_OF_ASC_NODE":305.1866,"ARG_OF_PERICENTER":98.1763,"MEAN_ANOMALY":261.9574,"EPHEMERIS_TYPE":0,"CLASSIFICATION_TYPE":"U","NORAD_CAT_ID":49295,"ELEMENT_SET_NO":999,"REV_AT_EPOCH":22627,"BSTAR":-7.214000000000001e-05,"MEAN_MOTION_DOT":-1.6e-07,"MEAN_MOTION_DDOT":0.0},{"OBJECT_NAME":"ONEWEB-0370","OBJECT_ID":"2021-090T","EPOCH":"2026-06-16T00:51:56.125728","MEAN_MOTION":13.20770064,"ECCENTRICITY":0.0002173,"INCLINATION":87.9196,"RA_OF_ASC_NODE":274.6695,"ARG_OF_PERICENTER":105.7767,"MEAN_ANOMALY":254.3607,"EPHEMERIS_TYPE":0,"CLASSIFICATION_TYPE":"U","NORAD_CAT_ID":49296,"ELEMENT_SET_NO":999,"REV_AT_EPOCH":22971,"BSTAR":-0.00011059,"MEAN_MOTION_DOT":-3.2e-07,"MEAN_MOTION_DDOT":0.0}]