ONEWEB-0349             
1 49281U 21090C   26167.31889999  .00000115  00000+0  25014-3 0  9995
2 49281  87.9194 274.6141 0002016 101.4678 258.6682 13.20772821229716
ONEWEB-0353             
1 49282U 21090D   26167.29729432 -.00000130  00000+0 -38607-3 0  9999
2 49282  87.8964 289.8818 0001657 100.1236 260.0081 13.14503585227468
ONEWEB-0356             
1 49283U 21090E   26167.31720904  .00000101  00000+0  21713-3 0  9994
2 49283  87.9194 274.6077 0002077  77.6866 282.4499 13.20773413229715
ONEWEB-0358             
1 49284U 21090F   26167.27400448  .00000017  00000+0  10082-4 0  9992
2 49284  87.9197 274.6218 0002110  95.7312 264.4061 13.20237089230431
ONEWEB-0359             
1 49285U 21090G   26167.26838790  .00000103  00000+0  22084-3 0  9997
2 49285  87.9194 274.6175 0002275  99.7159 260.4231 13.20773448230413
ONEWEB-0360             
1 49286U 21090H   26167.03100755 -.00001285  00000+0 -31926-2 0  9994
2 49286  87.9194 274.6710 0002141 103.0586 257.0786 13.20778618229693
ONEWEB-0361             
1 49287U 21090J   26167.31552593  .00000118  00000+0  25808-3 0  9992
2 49287  87.9195 274.6126 0002089  98.3006 261.8364 13.20771454230182
ONEWEB-0362             
1 49288U 21090K   26167.11579065  .00000019  00000+0  14782-4 0  9994
2 49288  87.9168 305.1913 0001913 107.2534 252.8808 13.19724115226771
ONEWEB-0363             
1 49289U 21090L   26167.25491778  .00000140  00000+0  31142-3 0  9997
2 49289  87.9193 274.6250 0002066  91.4644 268.6726 13.20770893230180
ONEWEB-0364             
1 49290U 21090M   26167.29364148  .00000043  00000+0  74402-4 0  9992
2 49290  87.9192 274.6251 0001999 101.0045 259.1313 13.20771894231325
ONEWEB-0365             
1 49291U 21090N   26166.89782105 -.00000070  00000+0 -20842-3 0  9995
2 49291  87.9175 305.2232 0001807 100.9398 259.1939 13.19724406226259
ONEWEB-0366             
1 49292U 21090P   26167.29412105 -.00000152  00000+0 -44361-3 0  9994
2 49292  87.8962 289.8845 0001958 100.4611 259.6740 13.14503136227447
ONEWEB-0367             
1 49293U 21090Q   26167.25408955  .00000163  00000+0  36806-3 0  9994
2 49293  87.9196 274.6263 0001916 105.5211 254.6134 13.20771470229708
ONEWEB-0368             
1 49294U 21090R   26167.30373602  .00000067  00000+0  13399-3 0  9996
2 49294  87.9183 274.6268 0001421  83.6729 276.4566 13.20770206230867
ONEWEB-0369             
1 49295U 21090S   26167.12053634 -.00000016  00000+0 -72140-4 0  9993
2 49295  87.9168 305.1866 0001798  98.1763 261.9574 13.19724529226274
ONEWEB-0370             
1 49296U 21090T   26167.03606627 -.00000032  00000+0 -11059-3 0  9999
2 49296  87.9196 274.6695 0002173 105.7767 254.3607 13.20770064229715
